GLOBAL-2                
1 43812U 18099BG  26068.69955396  .00003970  00000+0  26145-3 0  9998
2 43812  97.3697 109.3280 0007454 127.1924 232.9986 15.08046936396919
STARLINK-3162           
1 49411U 21104D   26068.71285280  .00000109  00000+0  24948-4 0  9992
2 49411  53.2170 219.0174 0001195  88.3826 271.7303 15.08832530238779
